<?xml version="1.0" encoding="UTF-8"?>
<kml xmlns="http://www.opengis.net/kml/2.2" xmlns:gx="http://www.google.com/kml/ext/2.2" xmlns:xsi="http://www.w3.org/2001/XMLSchema-instance"
 xsi:schemaLocation="http://www.opengis.net/kml/2.2 http://schemas.opengis.net/kml/2.2.0/ogckml22.xsd http://www.google.com/kml/ext/2.2 http://code.google.com/apis/kml/schema/kml22gx.xsd">
<Document id="Área de influencia PE">
  <name>Área de influencia PE</name>
  <snippet></snippet>
  <Folder id="FeatureLayer0">
    <name>Área de influencia PE</name>
    <snippet></snippet>
    <Placemark id="ID_00000">
      <name>LAV0029-00-2019</name>
      <snippet></snippet>
      <description><![CDATA[<html xmlns:fo="http://www.w3.org/1999/XSL/Format" xmlns:msxsl="urn:schemas-microsoft-com:xslt">
<head>
<META http-equiv="Content-Type" content="text/html">
<meta http-equiv="content-type" content="text/html; charset=UTF-8">
</head>
<body style="margin:0px 0px 0px 0px;overflow:auto;background:#FFFFFF;">
<table style="font-family:Arial,Verdana,Times;font-size:12px;text-align:left;width:100%;border-collapse:collapse;padding:3px 3px 3px 3px">
<tr style="text-align:center;font-weight:bold;background:#9CBCE2">
<td>LAV0029-00-2019</td>
</tr>
<tr>
<td>
<table style="font-family:Arial,Verdana,Times;font-size:12px;text-align:left;width:100%;border-spacing:0px; padding:3px 3px 3px 3px">
<tr>
<td>SHAPE</td>
<td>Polygon</td>
</tr>
<tr bgcolor="#D4E4F3">
<td>EXPEDIENTE</td>
<td>LAV0029-00-2019</td>
</tr>
<tr>
<td>OPERADOR</td>
<td>WIND AUTOGENERACIÓN S.A.S.</td>
</tr>
<tr bgcolor="#D4E4F3">
<td>PROYECTO</td>
<td>PARQUE EÓLICO WINDPESHI</td>
</tr>
<tr>
<td>AREA_INFL</td>
<td>206</td>
</tr>
<tr bgcolor="#D4E4F3">
<td>COMPONENTE</td>
<td>&lt;Null&gt;</td>
</tr>
<tr>
<td>GRUPO_COMP</td>
<td>Socioeconómico y Cultural</td>
</tr>
<tr bgcolor="#D4E4F3">
<td>OBSERV</td>
<td>Definitiva Medio Socioeconómico</td>
</tr>
<tr>
<td>AREA_HA</td>
<td>6187,172553</td>
</tr>
<tr bgcolor="#D4E4F3">
<td>ID_AREAINF</td>
<td>4</td>
</tr>
<tr>
<td>SHAPE_Length</td>
<td>37109,848236</td>
</tr>
<tr bgcolor="#D4E4F3">
<td>SHAPE_Area</td>
<td>61871725,529468</td>
</tr>
</table>
</td>
</tr>
</table>
</body><script type="text/javascript">
				function changeImage(attElement, nameElement) {
				document.getElementById('imageAttachment').src = attElement;
				document.getElementById('imageName').innerHTML = nameElement;}
			</script></html>
]]></description>
      <styleUrl>#PolyStyle00</styleUrl>
      <MultiGeometry>
        <Polygon>
          <extrude>0</extrude><altitudeMode>clampToGround</altitudeMode>
          <outerBoundaryIs><LinearRing><coordinates> -72.01883889781068,11.64432365986858,0 -72.01891635227862,11.64434333741368,0 -72.01897440664823,11.64436287557128,0 -72.01901292320797,11.6444013971426,0 -72.01909023634427,11.64444019651656,0 -72.01916768994943,11.64445987399477,0 -72.01922574619645,11.64447941301576,0 -72.01928366109952,11.64451807299522,0 -72.0193030593877,11.64451821233649,0 -72.01988234789714,11.64488569686895,0 -72.01994040245978,11.64490523484555,0 -72.01999831755364,11.64494389559978,0 -72.02007549060497,11.64500181661216,0 -72.02013340573865,11.64504047734207,0 -72.02017192163555,11.64507899967841,0 -72.02021043846709,11.64511752020427,0 -72.0202488130878,11.64517516531543,0 -72.02028732993973,11.64521368673728,0 -72.02032584588143,11.64525220905618,0 -72.02036436183373,11.6452907313707,0 -72.02040273743266,11.64534837465907,0 -72.0204411130437,11.64540601884798,0 -72.02049860630491,11.64550204696989,0 -72.02053712232079,11.64554056745615,0 -72.02059475599617,11.64561747367926,0 -72.02063327295544,11.64565599506241,0 -72.02065224935644,11.64571349996769,0 -72.02069076633323,11.64575202224917,0 -72.02072914113761,11.64580966640422,0 -72.02074811848117,11.64586717221271,0 -72.02078649423268,11.6459248154604,0 -72.02084426931299,11.64598259885739,0 -72.02088278543465,11.64602112111447,0 -72.02094070089592,11.64605978080068,0 -72.02099889703564,11.64606019670556,0 -72.02103727194394,11.64611784082684,0 -72.02109518744489,11.64615650138962,0 -72.02113370362586,11.64619502361739,0 -72.02119161916001,11.64623368325835,0 -72.02124967502246,11.64625322190675,0 -72.02128819215949,11.64629174321489,0 -72.02132656807292,11.64634938821176,0 -72.02136508431586,11.64638790950815,0 -72.02140331995507,11.64646467547947,0 -72.02146123558056,11.64650333597756,0 -72.02149975094531,11.64654185725564,0 -72.02149961156016,11.64656098005113,0 -72.02178612609228,11.6467649788018,0 -72.02181097107869,11.64684225555952,0 -72.02184274418876,11.64691702659045,0 -72.02186449455563,11.64695945754041,0 -72.02231674532854,11.64778690113353,0 -72.02233344053519,11.6478161312277,0 -72.02237824678188,11.64788410859612,0 -72.02242905301264,11.64794785289915,0 -72.02248545356981,11.64800685075189,0 -72.02254699127167,11.64806062658771,0 -72.02261317115229,11.64810874994164,0 -72.02268346139499,11.64815083093084,0 -72.02275729420901,11.64818653201748,0 -72.02283407776892,11.64821556533545,0 -72.02291319069286,11.64823769719499,0 -72.02292776230513,11.64824096160929,0 -72.02405570688683,11.64848415554605,0 -72.02476667249873,11.64872530316455,0 -72.02520914971713,11.64879010147963,0 -72.02576652180419,11.6488418845366,0 -72.02617866461523,11.64885677494048,0 -72.02689391868402,11.64887382491829,0 -72.0274278440623,11.64887372527149,0 -72.02794900767496,11.648845486388,0 -72.02861491353853,11.64882148010545,0 -72.02863303707393,11.648816458303,0 -72.0292743125764,11.64870794890937,0 -72.02954719449976,11.64868141976467,0 -72.02957370408997,11.64867845791222,0 -72.02965472590341,11.64866455863515,0 -72.03067681898722,11.64847812428573,0 -72.03075877744747,11.64847144115033,0 -72.03083979916858,11.64845754152994,0 -72.03091922943253,11.64843653991454,0 -72.03099643077282,11.64840860422449,0 -72.0310707802122,11.64837395851509,0 -72.03114168118971,11.64833288392115,0 -72.03120855992447,11.64828570869411,0 -72.03127088099768,11.64823281368198,0 -72.03132814003328,11.64817462597238,0 -72.03137987656731,11.64811161260346,0 -72.03142567588343,11.64804428057004,0 -72.03146516810456,11.64797317410656,0 -72.03149803373648,11.64789886385033,0 -72.03152401008516,11.64782194867233,0 -72.03154288761418,11.64774304752327,0 -72.03155451454218,11.64766279673531,0 -72.03155879595958,11.64758184006825,0 -72.03155569932491,11.64750083144185,0 -72.03154524899924,11.64742042315752,0 -72.03152752717607,11.64734126228307,0 -72.03152205557834,11.64732200928857,0 -72.03123700661419,11.64636008255634,0 -72.03068737739699,11.64382423898241,0 -72.030636844131,11.64287626677625,0 -72.03077609359872,11.64238326779322,0 -72.03116883123765,11.64171733444728,0 -72.03280169194349,11.63894858911452,0 -72.03295548266929,11.63868781312227,0 -72.03296310533166,11.63867463238904,0 -72.03304119302396,11.63853695316825,0 -72.03630061030567,11.63278994871517,0 -72.03630196156026,11.63278740767285,0 -72.03630384552508,11.63278419448047,0 -72.03778050168236,11.63013534023854,0 -72.03879845839599,11.62846718162091,0 -72.03896768904924,11.62818985512213,0 -72.03926875697739,11.62769647913568,0 -72.03995221965459,11.6276203334169,0 -72.0404006855876,11.62752317525418,0 -72.04067101143043,11.62755228855967,0 -72.04126221699268,11.62761595728469,0 -72.04141728973563,11.6276368319551,0 -72.04184327927393,11.62769417247688,0 -72.04186898395524,11.62769763298332,0 -72.0422820499593,11.62788757342244,0 -72.04333732559905,11.62788403971214,0 -72.04408944386053,11.62790543506266,0 -72.0447568186631,11.62797494243926,0 -72.04478497897121,11.6279854106829,0 -72.04531358589453,11.62721129795484,0 -72.0456838826379,11.62630553805297,0 -72.04610041862206,11.62571086062153,0 -72.0465676987284,11.62480578265511,0 -72.04676756535372,11.62399443664111,0 -72.04738066659463,11.62304257382003,0 -72.04789712392744,11.62204221901756,0 -72.04809456057417,11.62156551824628,0 -72.04863508477274,11.62058923579817,0 -72.04902270705666,11.61953924253889,0 -72.0490123602443,11.61889578222651,0 -72.04895666850445,11.61842519351573,0 -72.04866523817014,11.61833051348772,0 -72.0485481350707,11.61813958585919,0 -72.04854747196526,11.61794826688773,0 -72.04856575296861,11.61762295808564,0 -72.04859337094715,11.61739893572498,0 -72.04863449213468,11.61706536983824,0 -72.04866013699657,11.61685735163676,0 -72.04917585594823,11.61696941272626,0 -72.04951061928712,11.61696828562222,0 -72.05012127936374,11.61677968946321,0 -72.0503971766327,11.61659222050478,0 -72.05083252906228,11.61621767493239,0 -72.05123862048067,11.61580018012101,0 -72.05187679256444,11.61515231638927,0 -72.05216704050278,11.61490740102371,0 -72.0525448173841,11.61471958581918,0 -72.05293794733912,11.61476130484867,0 -72.05311370210867,11.61507639205048,0 -72.05362526719414,11.61480195540883,0 -72.05429715631351,11.61443375637896,0 -72.05495511597545,11.61397939917838,0 -72.05529188529366,11.61368056131594,0 -72.05570944304169,11.61327471753339,0 -72.05584520959755,11.61290743606849,0 -72.05579744116936,11.61272883342814,0 -72.05579444805421,11.61271764263863,0 -72.05579286767764,11.61271173306947,0 -72.0557121742071,11.61241002177973,0 -72.05541808017895,11.61155007035561,0 -72.05509988730584,11.61123852124297,0 -72.05505296480284,11.61119257895348,0 -72.05475987360059,11.61061960656877,0 -72.05461713997133,11.6103658227173,0 -72.05449137546978,11.6101422107018,0 -72.0545636478554,11.60999847480558,0 -72.05470811052737,11.60968708835756,0 -72.05497419456422,11.60947095019336,0 -72.05499753628328,11.60920780448667,0 -72.05492376473113,11.60892107164068,0 -72.05477763592444,11.60875416020851,0 -72.05477648737639,11.60842439021819,0 -72.0547760536712,11.60829977582637,0 -72.05482340313257,11.60796480291893,0 -72.05482290512704,11.60782166819563,0 -72.05482223747843,11.60762999325958,0 -72.05489342781082,11.60717536391888,0 -72.05476379147578,11.607048432441,0 -72.05472250146725,11.60700800318653,0 -72.05496067738193,11.60677156986592,0 -72.05505754045898,11.60672341225188,0 -72.05520291740349,11.6066750894494,0 -72.05529994611123,11.60667476183529,0 -72.05549400537508,11.606674104706,0 -72.05552993018044,11.60667398245894,0 -72.05573657763321,11.6066732831049,0 -72.05595497677994,11.60669645763667,0 -72.05607643013826,11.60674387722248,0 -72.05617354182083,11.60676746300878,0 -72.05627073828767,11.60681496427155,0 -72.05636793387184,11.606862465501,0 -72.05646529722129,11.60695779680738,0 -72.05653848568907,11.60707712356115,0 -72.05663559936805,11.60710071011415,0 -72.05673271123372,11.60712429572512,0 -72.05685408103061,11.6071478004037,0 -72.05697536786666,11.6071473886224,0 -72.05709682162383,11.60719480690162,0 -72.05721810848802,11.60719439501993,0 -72.05731522136463,11.60721798134878,0 -72.05741241728784,11.60726548225002,0 -72.05760672619816,11.60733656845209,0 -72.05772801221941,11.60733615726257,0 -72.05782504214139,11.607335827916,0 -72.0579220711482,11.60733549853381,0 -72.05801910107493,11.60733516912198,0 -72.0581161300865,11.60733483967455,0 -72.05823741612645,11.60733442736635,0 -72.05833436295802,11.60731018233437,0 -72.05843122390509,11.60726202355389,0 -72.05855251083818,11.60726161201844,0 -72.05864954075558,11.60726128239274,0 -72.05874648570175,11.60723703721157,0 -72.0588918633506,11.6071887125279,0 -72.05898872417337,11.60714055354933,0 -72.05908558679997,11.60709239454151,0 -72.05915794010714,11.606972572744,0 -72.05923046155539,11.60690058016045,0 -72.05930273064105,11.60675684279227,0 -72.05939509698867,11.60666515080922,0 -72.05939942576522,11.60666085442577,0 -72.05952046100276,11.60658869769824,0 -72.05964166446367,11.60656436925435,0 -72.05973852495389,11.6065162099955,0 -72.05981104613763,11.60644421724317,0 -72.05993199701938,11.60634814570241,0 -72.06005311617328,11.60629990335411,0 -72.06017415110163,11.60622774632572,0 -72.06029527016844,11.60617950386822,0 -72.06039221555002,11.60615525900032,0 -72.06048924329698,11.6061549287206,0 -72.06056176419946,11.60608293666041,0 -72.06068296646558,11.60605860775169,0 -72.06075548637786,11.60598661563359,0 -72.06082792384279,11.60589070886943,0 -72.06092444874402,11.60574688884795,0 -72.06094837137547,11.60565114726355,0 -72.0609722939912,11.60555540477069,0 -72.06099621566757,11.60545966317559,0 -72.06102013824577,11.60536392067499,0 -72.06104380800424,11.60519643336681,0 -72.06111540699028,11.60486137746394,0 -72.06118759117392,11.60469372485665,0 -72.06121151359898,11.60459798322968,0 -72.06147775474578,11.60442967021549,0 -72.06167139205991,11.60430943471973,0 -72.0617681689463,11.60423736005218,0 -72.06196214066929,11.60421278379806,0 -72.06225314131574,11.60418787649175,0 -72.06242285620883,11.60416338310903,0 -72.0625441419307,11.60416296979285,0 -72.06271394121411,11.60416239088128,0 -72.06281096833155,11.60416205976796,0 -72.06302953360216,11.60423305904069,0 -72.06319310985145,11.60401692634623,0 -72.06322251263789,11.60397410228023,0 -72.06326636092945,11.60394572288583,0 -72.0633247557919,11.60391744492483,0 -72.06336870696026,11.60387472228714,0 -72.06341245141809,11.60386068428221,0 -72.06344185415159,11.60381786109417,0 -72.06348580528375,11.6037751393404,0 -72.06351520891721,11.60373231524146,0 -72.06355905622546,11.60370393579398,0 -72.06358845892247,11.60366111168297,0 -72.06363230804759,11.60363273222874,0 -72.06364716324417,11.60358980668311,0 -72.06366201935028,11.60354688204383,0 -72.06369142293163,11.60350405792237,0 -72.06372082558015,11.60346123560332,0 -72.06373568166994,11.60341831005388,0 -72.06376508522561,11.60337548592263,0 -72.06380903532036,11.60333276410625,0 -72.06385298631928,11.60329004228502,0 -72.06398504312183,11.60313319030916,0 -72.06402889028988,11.60310481077829,0 -72.06407294407217,11.60304774659216,0 -72.06411689406852,11.60300502472042,0 -72.06416094781673,11.6029479605179,0 -72.06420489778694,11.60290523772561,0 -72.06423430029434,11.60286241443705,0 -72.06429290143912,11.60280545160309,0 -72.06432230392517,11.60276262739883,0 -72.06436625475605,11.6027199054849,0 -72.06439565813906,11.60267708127434,0 -72.06445415546324,11.60263446072592,0 -72.06448366165009,11.60257729508138,0 -72.06451306407892,11.60253447175755,0 -72.06454246650151,11.6024916475253,0 -72.06458652007956,11.60243458324298,0 -72.06463047082114,11.6023918603762,0 -72.06464532670299,11.60234893566633,0 -72.0646747290818,11.60230611232162,0 -72.06471867887183,11.6022633894355,0 -72.06474808306511,11.60222056608747,0 -72.0647629380008,11.60217764136597,0 -72.0648068877568,11.60213491846347,0 -72.06482174451324,11.60209199374359,0 -72.06488034354304,11.6020350298553,0 -72.0649097476863,11.60199220648638,0 -72.06495369739048,11.60194948355704,0 -72.0649832024761,11.60189231874703,0 -72.06502705027211,11.60186393813785,0 -72.06505645345968,11.60182111384282,0 -72.06508585571744,11.60177829044561,0 -72.06511525888649,11.60173546614296,0 -72.0651592085126,11.60169274498528,0 -72.06518861074353,11.6016499206704,0 -72.06521801480029,11.60160709635765,0 -72.06524741700973,11.60156427293974,0 -72.06527681921291,11.60152144861342,0 -72.06529167585953,11.60147852385953,0 -72.06532107804331,11.60143570043184,0 -72.06535048022084,11.60139287609574,0 -72.06537988422119,11.60135005266637,0 -72.06542383374827,11.60130733055496,0 -72.06545323589596,11.60126450620578,0 -72.06546809158509,11.60122158053138,0 -72.06549749462791,11.60117875798841,0 -72.06551234938733,11.60113583230762,0 -72.06554175241975,11.60109300794947,0 -72.06555660808154,11.60105008317287,0 -72.0656005575333,11.601007361028,0 -72.06561541410132,11.60096443534543,0 -72.06564481618129,11.60092161097073,0 -72.06565967089907,11.60087868618344,0 -72.06567452744693,11.60083576140084,0 -72.06567493756991,11.60077839296422,0 -72.06570434145463,11.60073556858664,0 -72.06571929890954,11.60067830145939,0 -72.0657487009411,11.60063547706975,0 -72.06576355745989,11.60059255227982,0 -72.06579306222571,11.60053538645347,0 -72.06582256789937,11.60047821972132,0 -72.06583742256187,11.60043529491969,0 -72.0658522781369,11.60039237011977,0 -72.0658816810334,11.60034954571485,0 -72.06592563032454,11.60030682260161,0 -72.06595503319744,11.60026399909202,0 -72.06598443606109,11.60022117557863,0 -72.0660429326315,11.60017855373865,0 -72.06605747994688,11.60017865502996,0 -72.06617335990768,11.5999187437544,0 -72.06699732897748,11.59924769478394,0 -72.06704230376315,11.5992085552498,0 -72.06709954511487,11.59915035706767,0 -72.06713656041876,11.59910645706779,0 -72.06773546064589,11.59834868815799,0 -72.06775016433996,11.59832956407059,0 -72.06779594537176,11.59826222380407,0 -72.06783541890648,11.59819110903197,0 -72.06786826925268,11.59811679136051,0 -72.06788074442605,11.59808267331367,0 -72.06826490064451,11.59696212712688,0 -72.06827838534704,11.59691932528327,0 -72.06829724631271,11.59684041856135,0 -72.068308857723,11.59676016320907,0 -72.06831068865905,11.59673899477252,0 -72.0683781955089,11.59583256491345,0 -72.06877701778096,11.59440920117896,0 -72.06877719456179,11.59437301711332,0 -72.06875121402055,11.59407974380725,0 -72.06874831287288,11.59407972451222,0 -72.06874852975839,11.59404943595697,0 -72.06873638812199,11.59391237920402,0 -72.06871993010776,11.59381059670913,0 -72.06872035749987,11.59375083735018,0 -72.06872048589833,11.59373285490422,0 -72.0686995927464,11.59349700309179,0 -72.06869197384651,11.59348171134921,0 -72.0686924411529,11.59341627474846,0 -72.06862456112839,11.59316455479085,0 -72.06860362035638,11.59312252401539,0 -72.06857374090661,11.59306255485961,0 -72.06854428980405,11.59294282544065,0 -72.0685448184538,11.59286885217747,0 -72.06852395626701,11.59279148825816,0 -72.06848517394853,11.59273324718079,0 -72.06848560137075,11.59267348782152,0 -72.06848576951261,11.59264988331559,0 -72.06846929079856,11.59258013409738,0 -72.06845614941358,11.59255375929808,0 -72.06845635358619,11.59252537401313,0 -72.06840119626499,11.5922919175874,0 -72.06839746111788,11.5922844216667,0 -72.06836758270923,11.59222445159479,0 -72.06836800922959,11.59216469223254,0 -72.0683381317527,11.59210472306612,0 -72.06833855827712,11.5920449637039,0 -72.06830889362308,11.59195511485287,0 -72.06830926786949,11.59190282473571,0 -72.06829544944387,11.59144319733012,0 -72.0682824339118,11.59141707170089,0 -72.06828286135294,11.59135731233972,0 -72.06828350159489,11.59126767329455,0 -72.06828392903006,11.59120791483735,0 -72.06828435646702,11.59114815547528,0 -72.0682847839028,11.59108839611298,0 -72.06825490470854,11.59102842603323,0 -72.06825521218158,11.59098548490434,0 -72.06814074870769,11.59058714298543,0 -72.06813688690551,11.59057938974365,0 -72.06813692732385,11.59057383915039,0 -72.06809959679639,11.59044392728313,0 -72.06807755798164,11.59039969201394,0 -72.06807778408943,11.5903680167103,0 -72.06805844491872,11.5903007124814,0 -72.06804810636606,11.59027996255755,0 -72.068018228214,11.59021999246353,0 -72.06801846233573,11.59018728501905,0 -72.06798667499079,11.59009710635779,0 -72.06792880665184,11.59001020429336,0 -72.06792923414224,11.58995044493262,0 -72.06786905046076,11.58989026408444,0 -72.06786947796166,11.58983050472429,0 -72.06786990545838,11.58977074626847,0 -72.06784433524811,11.58969329658171,0 -72.0675157498804,11.58915394482617,0 -72.06703203909294,11.58883836753675,0 -72.06649069918359,11.58862307648492,0 -72.06644857316107,11.5886074978359,0 -72.06639131579719,11.5885899371799,0 -72.06633301661472,11.58857610649906,0 -72.06627392497823,11.58856606449297,0 -72.06623515725875,11.58856202688565,0 -72.06623503198308,11.58855554491028,0 -72.06623362768333,11.58848303543446,0 -72.06622731582164,11.58815711008757,0 -72.06635836177468,11.58728393031538,0 -72.06636394066105,11.58723901605689,0 -72.06636691502764,11.58720010094556,0 -72.06638514272819,11.58686522669322,0 -72.06638643560152,11.58682318251551,0 -72.06638332629896,11.58674217228074,0 -72.06637286490903,11.5866617643135,0 -72.06635513462338,11.58658260387302,0 -72.06633027829415,11.58650532917352,0 -72.0662984975463,11.58643056233536,0 -72.06626004636696,11.58635890574585,0 -72.06624071931913,11.58632793807493,0 -72.06572502197578,11.58553772785693,0 -72.06497515732607,11.58437524371143,0 -72.06496530360666,11.58436029656844,0 -72.06440392950002,11.583526800239,0 -72.0640366826737,11.58296091370523,0 -72.06320413852616,11.58167804357993,0 -72.0629804460831,11.58052922422257,0 -72.06296730968114,11.58047189964399,0 -72.06295030952667,11.5804152030244,0 -72.06292958494198,11.58035972643275,0 -72.06292165128194,11.58034106024468,0 -72.06260282512724,11.57961389140093,0 -72.06255529677337,11.57950906806742,0 -72.06252351678985,11.57943430001038,0 -72.06248506742654,11.57936264303363,0 -72.06244025962631,11.57929467347728,0 -72.06238945122715,11.57923093617142,0 -72.06233305337516,11.57917194717094,0 -72.0622715195602,11.57911818015082,0 -72.06220534469533,11.57907006730798,0 -72.06213506328787,11.57902799754618,0 -72.06208995358773,11.57900523239786,0 -72.06195289993765,11.57894071442633,0 -72.05893931294244,11.57752207241724,0 -72.05724618276402,11.57658131784441,0 -72.05723624009229,11.57657587225922,0 -72.05716241751267,11.57654018366742,0 -72.0571511293885,11.57653542120508,0 -72.05638066938629,11.57621638504495,0 -72.0562087299478,11.57612239069716,0 -72.05647251882658,11.57593323892781,0 -72.05651587720888,11.57584699770726,0 -72.05657383858214,11.57577505625159,0 -72.05663179992825,11.57570311387705,0 -72.05668976123813,11.57563117329746,0 -72.05674762418336,11.57553053169029,0 -72.05680548615868,11.57542989277847,0 -72.05686344737114,11.57535795034569,0 -72.05687779898372,11.57530050523878,0 -72.05686309761006,11.57525750808414,0 -72.05689190285227,11.57517131437145,0 -72.05692070898027,11.57508512427541,0 -72.05692036011175,11.57498468110889,0 -72.05689095463707,11.57489868408035,0 -72.05689060577404,11.57479824091334,0 -72.0568612003145,11.57471224659673,0 -72.05681724198909,11.57462630167348,0 -72.05671517513052,11.57456924810524,0 -72.05662770851627,11.57452649697647,0 -72.05654029109857,11.5744980940686,0 -72.05640931799104,11.57449853667381,0 -72.05629294691381,11.5745132789999,0 -72.05620572888412,11.5745422735021,0 -72.0560894069327,11.57457136308302,0 -72.05598768788015,11.5746147560313,0 -72.05591517375072,11.5746867458275,0 -72.05581335454944,11.57470143859974,0 -72.05572613917447,11.57473043295766,0 -72.05562426991455,11.57473077741675,0 -72.05552235062727,11.57471677269115,0 -72.05542043135904,11.57470276612123,0 -72.05531846299844,11.57467441127572,0 -72.05521649556938,11.57464605911265,0 -72.05512907829524,11.57461765488256,0 -72.05504161194598,11.57457490329246,0 -72.05493974367835,11.57457524751804,0 -72.05482322163735,11.57454694180293,0 -72.05472125524393,11.57451858676191,0 -72.05466279382973,11.57444703999687,0 -72.05450418460367,11.57449573498443,0 -72.05440189205601,11.57437411219807,0 -72.05431455129096,11.57436723326515,0 -72.05427896679988,11.57459693957574,0 -72.05411233182839,11.57480556280061,0 -72.05401791340296,11.5748561036096,0 -72.05392349586585,11.57490664348334,0 -72.05382897748447,11.57492848774995,0 -72.05376326523306,11.5748641368446,0 -72.05374111268198,11.57477094173877,0 -72.05374806679991,11.57467764996433,0 -72.05373318886419,11.5745844297794,0 -72.05369650890555,11.57449845757904,0 -72.05367433188621,11.57439808790022,0 -72.05365715746937,11.57423066109698,0 -72.0536880003999,11.5741561719787,0 -72.05374918640487,11.57407592281972,0 -72.05378602394326,11.57401044241856,0 -72.05379573719409,11.5739238565045,0 -72.05381146890122,11.57384328784028,0 -72.05385314816583,11.57378670745449,0 -72.05387354446891,11.57375902054463,0 -72.05394317039134,11.57364998153408,0 -72.05402576217784,11.57354298857235,0 -72.05413852947994,11.57345413303487,0 -72.05430545461321,11.57341944435463,0 -72.0545295053891,11.57340511314809,0 -72.05462409773283,11.57340479413396,0 -72.05471869007884,11.57340447508891,0 -72.05480590602576,11.57337548191541,0 -72.05487116911014,11.5733106911608,0 -72.05494373403558,11.5732530480497,0 -72.05500897159341,11.57318108358771,0 -72.05505963086487,11.57310199113165,0 -72.05506658446259,11.57300869927752,0 -72.05502987970242,11.57291555264819,0 -72.05498592220098,11.57282960569288,0 -72.0549201864788,11.57275808320267,0 -72.05483269617872,11.57270815701921,0 -72.05473797953373,11.57267260144262,0 -72.05469414852024,11.57262252822995,0 -72.05465049112759,11.57262267611903,0 -72.05455594811451,11.57263734521116,0 -72.05445397968552,11.57260898831043,0 -72.05438099230895,11.57254466356853,0 -72.05435883967019,11.57245146849352,0 -72.05437306984446,11.57235815157611,0 -72.05436544359581,11.572257734451,0 -72.05431423638608,11.57217898618013,0 -72.05426192253181,11.57211751602976,0 -72.05413881171724,11.5720673069012,0 -72.05412227991118,11.57189695666697,0 -72.05410933148704,11.57184247110982,0 -72.05410914510406,11.57178925117054,0 -72.05410898353276,11.57174202799657,0 -72.05409410647025,11.57164880781737,0 -72.05409391037108,11.57159274464488,0 -72.05392565669983,11.571366155702,0 -72.05400189049958,11.57121608953781,0 -72.05409693549056,11.57114743035783,0 -72.05419944116305,11.57105252823177,0 -72.05425882647152,11.57088561009836,0 -72.05427189171182,11.57075422502834,0 -72.05428476772015,11.57064913465323,0 -72.05436791597968,11.57054931690123,0 -72.05396394533214,11.57045560699224,0 -72.0535788509243,11.57040271467468,0 -72.0530349414,11.5701837702228,0 -72.05281873555167,11.569892000371,0 -72.05285340586123,11.56982482766439,0 -72.05291839463794,11.56968759043156,0 -72.05292143469902,11.56953462388099,0 -72.05289919250946,11.56939103874617,0 -72.05292125500783,11.56928983847355,0 -72.05298444279113,11.56913346545744,0 -72.05301221151599,11.56904760164718,0 -72.05304390494987,11.56895602897912,0 -72.05311462904749,11.56883030715311,0 -72.05311336241438,11.5687365913687,0 -72.05305584074415,11.56864439601808,0 -72.05296523979878,11.56856726833344,0 -72.05281629302502,11.56851268101814,0 -72.05264354912435,11.56853059658656,0 -72.05251120334609,11.56859469170806,0 -72.05243115382095,11.56866871496787,0 -72.05228897128579,11.56875186334199,0 -72.05215706897438,11.5687836315667,0 -72.05205616538385,11.56880793225445,0 -72.05201306290161,11.56880503486792,0 -72.05190119918917,11.56876839654188,0 -72.05171069898813,11.56871029123941,0 -72.05159303509213,11.56863775323296,0 -72.05146075425216,11.56849041099124,0 -72.05143780149588,11.56831096550354,0 -72.05147788510995,11.56821562745916,0 -72.05151238299844,11.56821030999978,0 -72.05155618678444,11.56816537831916,0 -72.05162625272249,11.56813144765755,0 -72.05166922290468,11.56808967485252,0 -72.0516637077572,11.56804756604569,0 -72.05162337965159,11.56799182294104,0 -72.05155588601863,11.56793780375517,0 -72.051480690793,11.56787608279454,0 -72.05142681442241,11.56781642266479,0 -72.05140649947222,11.56769905494701,0 -72.05137487758188,11.56765648706189,0 -72.05131391170916,11.56756103077106,0 -72.05124069496517,11.56742974242655,0 -72.05120398362342,11.5673342054174,0 -72.05110647300668,11.56719104224383,0 -72.05110609971408,11.56708342098721,0 -72.05110577052994,11.56698776248058,0 -72.05111756534092,11.56689206135516,0 -72.0511293619731,11.56679636113862,0 -72.05111686375079,11.56668878339944,0 -72.05105597998568,11.56661724260151,0 -72.05097092645516,11.56656969892005,0 -72.05087382805776,11.56654610791789,0 -72.0507767315048,11.56652251960426,0 -72.05067963313878,11.56649893034872,0 -72.05058249252012,11.56646338284141,0 -72.05052160986438,11.56639184104301,0 -72.05049698515707,11.5662843067847,0 -72.05052082687708,11.56616465029931,0 -72.05055687707232,11.56606886855783,0 -72.05061718064877,11.56597300434098,0 -72.05068973588584,11.56591297217083,0 -72.0507865867793,11.56586481390887,0 -72.05105347429395,11.56562498030487,0 -72.05133114920167,11.56544405487731,0 -72.05155801941586,11.5652484248489,0 -72.0517382095211,11.56497000181552,0 -72.05185273872691,11.56471980307983,0 -72.05194160963467,11.56449811066369,0 -72.0522303447883,11.56429574578713,0 -72.05237662041611,11.56418202473509,0 -72.05261073529513,11.56399003225767,0 -72.05280856339023,11.56378703033669,0 -72.05299210393157,11.56354807201967,0 -72.05317489756847,11.56341309378727,0 -72.05338672922602,11.56328548607041,0 -72.05359154649346,11.56312197557026,0 -72.05376376529036,11.56294030691598,0 -72.05394844534879,11.56266319858634,0 -72.0540013948894,11.56246426941132,0 -72.05442670276433,11.56197958424836,0 -72.05471891727993,11.56179875318005,0 -72.05488695835533,11.5616923530305,0 -72.05496428466458,11.56157793979767,0 -72.05493359332235,11.56154788524304,0 -72.05489467189965,11.56151453548208,0 -72.05485576564396,11.56148596755844,0 -72.05482652993166,11.56144780334723,0 -72.05479727724762,11.56140485366735,0 -72.05476803971946,11.56136668854073,0 -72.05473396785123,11.5613333211025,0 -72.05469024518426,11.56131433631934,0 -72.05465132657827,11.56128098563435,0 -72.05460758694012,11.56125721808751,0 -72.05456867983267,11.5612286501269,0 -72.05452966026175,11.56116660382214,0 -72.05451995941969,11.56116663731679,0 -72.05447623679468,11.56114765250429,0 -72.05441799505456,11.56113828070701,0 -72.05437427244192,11.56111929588,0 -72.05433536995949,11.56109072971532,0 -72.05428677812931,11.56106697795784,0 -72.0542536362686,11.5610492986127,0 -72.05423332258246,11.561038459291,0 -72.05417991522756,11.561024289766,0 -72.05412160745151,11.56099578691112,0 -72.05406816615525,11.56097205276792,0 -72.05401957804045,11.56094830098078,0 -72.05397100415733,11.56092933192866,0 -72.05392721555448,11.56089121422972,0 -72.0538882773693,11.56085308250178,0 -72.05385419053525,11.56081493132197,0 -72.05381528539849,11.56078636508536,0 -72.05378121462805,11.56075299936036,0 -72.05374224346512,11.56070529940207,0 -72.05368626815111,11.56062260230459,0 -72.05357056204359,11.56069948500024,0 -72.05339424139846,11.56076466666251,0 -72.05335565485676,11.56077893127337,0 -72.05325112267548,11.56081757518367,0 -72.05299559883731,11.5609532432793,0 -72.0528233886081,11.56110777316113,0 -72.05275769640433,11.56116672299858,0 -72.05253810356167,11.56136240072979,0 -72.05210287257515,11.56168127731578,0 -72.05163699349659,11.56193579185727,0 -72.05151941892196,11.56196101408919,0 -72.05135835989442,11.56190933026689,0 -72.05135732443181,11.56190706082115,0 -72.05132855647923,11.56184399380694,0 -72.05133603371598,11.56164683239674,0 -72.05145835974145,11.56149230672323,0 -72.05159278352332,11.56141440787895,0 -72.05174262094218,11.56120962940325,0 -72.05184305118227,11.56087958024769,0 -72.05186707361278,11.56075929812882,0 -72.05209975189324,11.56042924800141,0 -72.05191972660313,11.56050371697784,0 -72.05177010828315,11.56051097839861,0 -72.05157421832098,11.56052048107887,0 -72.05155886820124,11.56050330471462,0 -72.05154910173019,11.56049613174326,0 -72.05150572090393,11.56046427677774,0 -72.05238055577492,11.55901111055624,0 -72.04743100761189,11.55752603534688,0 -72.04743063725327,11.55741841956024,0 -72.0474300615568,11.55725101270227,0 -72.04741420343673,11.55718935827597,0 -72.04739318758566,11.55710764520577,0 -72.0473323094572,11.55703610292131,0 -72.04722255310818,11.55685710390187,0 -72.04714926008168,11.55670189928011,0 -72.04706412768601,11.55663043828013,0 -72.04697472876836,11.55655456139123,0 -72.04692811562087,11.55651499965314,0 -72.04688169551083,11.55647559956397,0 -72.04677226763644,11.55639226158477,0 -72.04669922140152,11.55630880162647,0 -72.04669889343869,11.55621314045005,0 -72.04669839873013,11.55606965093675,0 -72.0467458373532,11.55575859288074,0 -72.04676921021952,11.55565913332947,0 -72.04675295817829,11.55554960818075,0 -72.04674493398318,11.555495526662,0 -72.04672010430069,11.55532820292847,0 -72.04670760885074,11.55522062418675,0 -72.04668016222627,11.55517424131405,0 -72.04653161730411,11.55493433276015,0 -72.04643938832002,11.5548030018166,0 -72.04634213045058,11.55473158130056,0 -72.04622082444783,11.55472002856566,0 -72.04611168769681,11.55472039427207,0 -72.04599042292007,11.55472079784482,0 -72.04577214669106,11.55472152632019,0 -72.04566292666121,11.55469797724166,0 -72.04556587495908,11.55468634301424,0 -72.04539602122891,11.5546629941557,0 -72.04530271541087,11.55465673561818,0 -72.04518017824199,11.55459590505692,0 -72.04506471961554,11.55452155389187,0 -72.04489467308589,11.55444140711171,0 -72.04466090156374,11.55434353616336,0 -72.04441623763387,11.55425256120034,0 -72.04440591900523,11.55424872421639,0 -72.04418378792003,11.55421141434679,0 -72.04431935539884,11.55396571960261,0 -72.04478787818746,11.553386789212,0 -72.0448049382247,11.55336908241427,0 -72.04448576592686,11.55331981724301,0 -72.04447641056888,11.55331842227205,0 -72.04335980423399,11.55315769694761,0 -72.04278611638721,11.55307512127902,0 -72.0427028406252,11.5530670740598,0 -72.04262063212015,11.55306649700729,0 -72.04253870076155,11.55307318940414,0 -72.04251826932212,11.55307600315898,0 -72.04178190580203,11.55318577353341,0 -72.04021148314212,11.55466678619429,0 -72.03977468484878,11.55519710992622,0 -72.02843669827864,11.55162244639007,0 -72.0253231175557,11.54756159179575,0 -72.02503076895401,11.54718028817932,0 -72.02488595384338,11.54699141071213,0 -72.02019308098089,11.55548703658493,0 -72.01814839332224,11.559270241052,0 -71.98864317835182,11.61389495442673,0 -71.98728991986141,11.61640453915262,0 -71.98726354921629,11.61645344577685,0 -71.984348936074,11.6218571134157,0 -71.98319357641535,11.62399908048189,0 -71.98299475686761,11.62436687892072,0 -71.98148458821153,11.62716053377101,0 -71.98129419453343,11.62753298463637,0 -71.98106570888356,11.62795374523614,0 -71.98086272588203,11.62832754790699,0 -71.9792766080505,11.6312484134033,0 -71.97885426569343,11.6320261749466,0 -71.97874813767699,11.63222248962613,0 -71.97684239255825,11.63574767942671,0 -71.97584827285029,11.63757430549711,0 -71.97521102961758,11.63874518766719,0 -71.98591071065434,11.64122062730819,0 -71.98765768449151,11.64162476037551,0 -71.9879778845538,11.64169880312133,0 -71.99253201036868,11.64275225327065,0 -71.993088243093,11.64288091419457,0 -71.99630517214611,11.64362499633496,0 -71.99805152001207,11.64402891358202,0 -72.00011829397171,11.64450692712716,0 -72.0008919547688,11.64468585961229,0 -72.00151163610197,11.64482918045017,0 -72.0027205611468,11.64510877006702,0 -72.00422928835498,11.64545769158416,0 -72.00422926074455,11.64545771410358,0 -72.00487304295821,11.64594168577861,0 -72.00579206870862,11.64627339517336,0 -72.0064393748509,11.64662227060601,0 -72.00712597579891,11.64690449650122,0 -72.00780365632536,11.64708147906953,0 -72.00898506967785,11.64734813603302,0 -72.00920773051885,11.6474290977876,0 -72.00933482313705,11.64745869580382,0 -72.00945442887527,11.64751692476808,0 -72.00963947875388,11.64757920981341,0 -72.0098174925367,11.64760917367455,0 -72.01008972264472,11.64764994029552,0 -72.01013822382652,11.64764380383367,0 -72.01018368424369,11.64763468892108,0 -72.01023217672645,11.6476255636203,0 -72.01028065867844,11.64761344857746,0 -72.01032611908782,11.64760433364158,0 -72.0103837393542,11.64760414637006,0 -72.01043832663585,11.64760396946686,0 -72.01048684978554,11.64760381241572,0 -72.01054144668211,11.64760662522363,0 -72.01059306142723,11.64762439435212,0 -72.01061254980529,11.6476263519434,0 -72.01065070185201,11.64763018558762,0 -72.01070531890912,11.64763897692521,0 -72.01075689336845,11.64764478890501,0 -72.01080241423342,11.64765360957423,0 -72.01086310688902,11.6476653707509,0 -72.01091468136202,11.64767118179849,0 -72.01108775159348,11.64773339945519,0 -72.01109078366336,11.64773338906547,0 -72.01113928668408,11.64772725334524,0 -72.01118780895021,11.6477270952699,0 -72.01123938436058,11.64773290716849,0 -72.01129093869268,11.64773274049371,0 -72.01133644813851,11.64773857134331,0 -72.01139711105594,11.64774136411789,0 -72.01145170892373,11.6477441758546,0 -72.01149721837687,11.64775000667919,0 -72.01154273837416,11.64775882723139,0 -72.01158824782959,11.64776465894653,0 -72.01163376691564,11.6477734794816,0 -72.01168228919326,11.64777332222813,0 -72.01173081147154,11.64777316496646,0 -72.01178236673901,11.64777299730278,0 -72.01183995725803,11.64776384235324,0 -72.01188846990911,11.64776069533306,0 -72.01193702199343,11.64776950633051,0 -72.01198255164222,11.6477813165464,0 -72.01203416653185,11.6477990854263,0 -72.01208272917997,11.64781088523057,0 -72.0121313101756,11.64782866448778,0 -72.01217685039616,11.64784346350491,0 -72.01222844513204,11.64785525288458,0 -72.01228309212344,11.6478730122251,0 -72.01233465704961,11.64787583419611,0 -72.01238621234471,11.64787566642578,0 -72.01243473465026,11.64787550904684,0 -72.01248932293382,11.64787533176199,0 -72.01253784432303,11.64787517436251,0 -72.0125954646776,11.64787498755721,0 -72.01264396771136,11.64786885158278,0 -72.01269552209192,11.64786868375377,0 -72.0127592075077,11.64786847701019,0 -72.01281076280753,11.64786830916369,0 -72.01285928511754,11.64786815171305,0 -72.01291690547583,11.64786796484326,0 -72.01296846077784,11.64786779696848,0 -72.01302001516287,11.64786762908134,0 -72.01318682083495,11.64787007618019,0 -72.01319288589252,11.64787005716904,0 -72.0132505457524,11.64788182645347,0 -72.013314261948,11.64789058788788,0 -72.01336887918127,11.64789937873079,0 -72.01341439928628,11.64790819899367,0 -72.01347200909636,11.64790502318173,0 -72.01352053142489,11.64790486471553,0 -72.01357207617912,11.64790170699684,0 -72.01362058885597,11.64789856058968,0 -72.01366605798303,11.64789243304227,0 -72.01398763414834,11.64793736887068,0 -72.01412108899223,11.64792637373302,0 -72.01432711471043,11.64793980335248,0 -72.0145696000678,11.64794154085743,0 -72.01481755261824,11.64791160694168,0 -72.01487204964199,11.64787976881655,0 -72.01531151799335,11.6476230137697,0 -72.01555364799708,11.64747873235249,0 -72.01582495466393,11.64735348825459,0 -72.01610433369648,11.64726067694897,0 -72.01611576673196,11.64725687871148,0 -72.01639706769285,11.64721769654626,0 -72.01640677140585,11.64721766547425,0 -72.01668133400199,11.64709878736105,0 -72.01687471628824,11.64688770086786,0 -72.01701202364873,11.64672115071135,0 -72.01704868813196,11.64667667730462,0 -72.01718371508038,11.64642751660643,0 -72.01731874085733,11.64617835581807,0 -72.01770543788396,11.64573704999812,0 -72.01787471882083,11.64558306747831,0 -72.01793763582047,11.64552583634735,0 -72.01818943389975,11.64537195504627,0 -72.01842169619859,11.64517987346827,0 -72.01874474035823,11.64468088965513,0 -72.01878084254307,11.64430412168189,0 -72.01883889781068,11.64432365986858,0</coordinates></LinearRing></outerBoundaryIs>
        </Polygon>
      </MultiGeometry>
    </Placemark>
  </Folder>
  <Style id="PolyStyle00">
    <LabelStyle>
      <color>00000000</color>
      <scale>0.000000</scale>
    </LabelStyle>
    <LineStyle>
      <color>ffe600a9</color>
      <width>2.000000</width>
    </LineStyle>
    <PolyStyle>
      <color>00828282</color>
      <outline>1</outline>
    </PolyStyle>
  </Style>
</Document>
</kml>